[
    {
        "Altitude(m)": 553652.3051901583,
        "Argument of Periapsis(deg)": 0.033114955553567506,
        "Eccentricity": 0.0,
        "Inclination(deg)": 53.0,
        "Latitude(deg)": 17.619953583088673,
        "Longitude(deg)": 137.2426705988153,
        "Mean Anomaly(deg)": 157.73076433788796,
        "RAAN(deg)": 74.95071684264009,
        "Satellite Name": "Starlink Shell 1 336",
        "Satellite Number": 336,
        "Semi-Major Axis(m)": 6931778.249405717,
        "Time(s)": 950
    },
    {
        "Altitude(m)": 553624.8466071145,
        "Argument of Periapsis(deg)": 0.03346353403307874,
        "Eccentricity": 0.0,
        "Inclination(deg)": 53.0,
        "Latitude(deg)": 17.130308810913743,
        "Longitude(deg)": 137.61481207835703,
        "Mean Anomaly(deg)": 158.35759554144462,
        "RAAN(deg)": 74.95019807256261,
        "Satellite Name": "Starlink Shell 1 336",
        "Satellite Number": 336,
        "Semi-Major Axis(m)": 6931778.249405717,
        "Time(s)": 960
    },
    {
        "Altitude(m)": 553599.6915662221,
        "Argument of Periapsis(deg)": 0.03381211251258998,
        "Eccentricity": 0.0,
        "Inclination(deg)": 53.0,
        "Latitude(deg)": 16.63980310805259,
        "Longitude(deg)": 137.98479213026582,
        "Mean Anomaly(deg)": 158.98442674500131,
        "RAAN(deg)": 74.94967930248514,
        "Satellite Name": "Starlink Shell 1 336",
        "Satellite Number": 336,
        "Semi-Major Axis(m)": 6931778.249405717,
        "Time(s)": 970
    },
    {
        "Altitude(m)": 553576.874317472,
        "Argument of Periapsis(deg)": 0.034160690992101214,
        "Eccentricity": 0.0,
        "Inclination(deg)": 53.0,
        "Latitude(deg)": 16.148466801764595,
        "Longitude(deg)": 138.3526832180845,
        "Mean Anomaly(deg)": 159.6112579485581,
        "RAAN(deg)": 74.94916053240767,
        "Satellite Name": "Starlink Shell 1 336",
        "Satellite Number": 336,
        "Semi-Major Axis(m)": 6931778.249405717,
        "Time(s)": 980
    },
    {
        "Altitude(m)": 553556.4280749642,
        "Argument of Periapsis(deg)": 0.034509269471612446,
        "Eccentricity": 0.0,
        "Inclination(deg)": 53.0,
        "Latitude(deg)": 15.656329754316054,
        "Longitude(deg)": 138.71855743247545,
        "Mean Anomaly(deg)": 160.2380891521148,
        "RAAN(deg)": 74.9486417623302,
        "Satellite Name": "Starlink Shell 1 336",
        "Satellite Number": 336,
        "Semi-Major Axis(m)": 6931778.249405717,
        "Time(s)": 990
    }
]